start=new Date('2022-12-22T00:00:00.000Z').valueOf();
sats=[{"ECCENTRICITY":"0.00023710","MEAN_MOTION_DDOT":"0.0000000000000","MEAN_MOTION":"15.08830773","GP_ID":"221119602","MEAN_ELEMENT_THEORY":"SGP4","EPHEMERIS_TYPE":"0","MEAN_ANOMALY":"326.2551","PERIOD":"95.438","TIME_SYSTEM":"UTC","RA_OF_ASC_NODE":"50.5893","ARG_OF_PERICENTER":"33.8593","MEAN_MOTION_DOT":"-0.00001164","ELEMENT_SET_NO":"999","DECAY_DATE":null,"REF_FRAME":"TEME","NORAD_CAT_ID":"50849","EPOCH":"2022-12-21T10:20:31.407648","RCS_SIZE":"LARGE","CLASSIFICATION_TYPE":"U","PERIAPSIS":"538.133","BSTAR":"-0.00005506400000","TLE_LINE1":"1 50849U 22001AY  22355.43091907 -.00001164  00000-0 -55064-4 0  9999","REV_AT_EPOCH":"5299","OBJECT_TYPE":"PAYLOAD","LAUNCH_DATE":"2022-01-06","COUNTRY_CODE":"US","APOAPSIS":"541.414","TLE_LINE2":"2 50849  53.2209  50.5893 0002371  33.8593 326.2551 15.08830773 52994","FILE":"3716551","CENTER_NAME":"EARTH","INCLINATION":"53.2209","SEMIMAJOR_AXIS":"6917.909","OBJECT_ID":"2022-001AY","SITE":"AFETR","OBJECT_NAME":"STARLINK-3311"},{"APOAPSIS":"541.596","COUNTRY_CODE":"US","OBJECT_TYPE":"PAYLOAD","LAUNCH_DATE":"2022-01-06","REV_AT_EPOCH":"5483","BSTAR":"-0.00014153000000","TLE_LINE1":"1 50850U 22001AZ  22355.43460144 -.00002540  00000-0 -14153-3 0  9996","PERIAPSIS":"537.926","SITE":"AFETR","OBJECT_NAME":"STARLINK-3312","OBJECT_ID":"2022-001AZ","SEMIMAJOR_AXIS":"6917.896","INCLINATION":"53.2182","CENTER_NAME":"EARTH","FILE":"3717177","TLE_LINE2":"2 50850  53.2182  10.5623 0002652  30.0230 330.0914 15.08834870 54835","PERIOD":"95.438","MEAN_ANOMALY":"330.0914","MEAN_ELEMENT_THEORY":"SGP4","EPHEMERIS_TYPE":"0","MEAN_MOTION_DDOT":"0.0000000000000","GP_ID":"221133190","MEAN_MOTION":"15.08834870","ECCENTRICITY":"0.00026520","RCS_SIZE":"LARGE","CLASSIFICATION_TYPE":"U","EPOCH":"2022-12-21T10:25:49.564416","NORAD_CAT_ID":"50850","ELEMENT_SET_NO":"999","DECAY_DATE":null,"REF_FRAME":"TEME","ARG_OF_PERICENTER":"30.0230","RA_OF_ASC_NODE":"10.5623","MEAN_MOTION_DOT":"-0.00002540","TIME_SYSTEM":"UTC"},{"TLE_LINE2":"2 50851  53.2195  50.3552 0002483  29.4340 330.6791 15.08831201 54282","CENTER_NAME":"EARTH","FILE":"3717177","SEMIMAJOR_AXIS":"6917.907","INCLINATION":"53.2195","SITE":"AFETR","OBJECT_NAME":"STARLINK-3314","OBJECT_ID":"2022-001BA","BSTAR":"-0.00012258000000","TLE_LINE1":"1 50851U 22001BA  22355.48245481 -.00002238  00000-0 -12258-3 0  9995","PERIAPSIS":"538.055","OBJECT_TYPE":"PAYLOAD","LAUNCH_DATE":"2022-01-06","REV_AT_EPOCH":"5428","APOAPSIS":"541.490","COUNTRY_CODE":"US","RA_OF_ASC_NODE":"50.3552","ARG_OF_PERICENTER":"29.4340","MEAN_MOTION_DOT":"-0.00002238","TIME_SYSTEM":"UTC","ELEMENT_SET_NO":"999","DECAY_DATE":null,"REF_FRAME":"TEME","EPOCH":"2022-12-21T11:34:44.095584","NORAD_CAT_ID":"50851","RCS_SIZE":"LARGE","CLASSIFICATION_TYPE":"U","MEAN_MOTION_DDOT":"0.0000000000000","GP_ID":"221132808","MEAN_MOTION":"15.08831201","ECCENTRICITY":"0.00024830","MEAN_ELEMENT_THEORY":"SGP4","EPHEMERIS_TYPE":"0","PERIOD":"95.438","MEAN_ANOMALY":"330.6791"},{"CLASSIFICATION_TYPE":"U","RCS_SIZE":"LARGE","NORAD_CAT_ID":"51104","EPOCH":"2022-12-21T04:05:37.140864","DECAY_DATE":null,"REF_FRAME":"TEME","ELEMENT_SET_NO":"999","TIME_SYSTEM":"UTC","MEAN_MOTION_DOT":"0.00000968","RA_OF_ASC_NODE":"161.7486","ARG_OF_PERICENTER":"41.0008","MEAN_ANOMALY":"319.1203","PERIOD":"95.438","EPHEMERIS_TYPE":"0","MEAN_ELEMENT_THEORY":"SGP4","ECCENTRICITY":"0.00029110","GP_ID":"221118149","MEAN_MOTION":"15.08833478","MEAN_MOTION_DDOT":"0.0000000000000","OBJECT_ID":"2022-005A","OBJECT_NAME":"STARLINK-3366","SITE":"AFETR","INCLINATION":"53.2174","SEMIMAJOR_AXIS":"6917.900","FILE":"3716551","CENTER_NAME":"EARTH","TLE_LINE2":"2 51104  53.2174 161.7486 0002911  41.0008 319.1203 15.08833478 51567","COUNTRY_CODE":"US","APOAPSIS":"541.779","REV_AT_EPOCH":"5156","OBJECT_TYPE":"PAYLOAD","LAUNCH_DATE":"2022-01-19","PERIAPSIS":"537.752","TLE_LINE1":"1 51104U 22005A   22355.17056876  .00000968  00000-0  78930-4 0  9991","BSTAR":"0.00007893000000"},{"INCLINATION":"53.2167","SEMIMAJOR_AXIS":"6917.946","OBJECT_ID":"2022-005B","SITE":"AFETR","OBJECT_NAME":"STARLINK-3350","TLE_LINE2":"2 51105  53.2167 160.3851 0002552  42.6466 317.4724 15.08818550 51616","FILE":"3716551","CENTER_NAME":"EARTH","COUNTRY_CODE":"US","APOAPSIS":"541.576","PERIAPSIS":"538.045","BSTAR":"-0.00018163000000","TLE_LINE1":"1 51105U 22005B   22355.47602993 -.00003176  00000-0 -18163-3 0  9999","REV_AT_EPOCH":"5161","LAUNCH_DATE":"2022-01-19","OBJECT_TYPE":"PAYLOAD","NORAD_CAT_ID":"51105","EPOCH":"2022-12-21T11:25:28.985952","RCS_SIZE":"LARGE","CLASSIFICATION_TYPE":"U","TIME_SYSTEM":"UTC","ARG_OF_PERICENTER":"42.6466","RA_OF_ASC_NODE":"160.3851","MEAN_MOTION_DOT":"-0.00003176","ELEMENT_SET_NO":"999","REF_FRAME":"TEME","DECAY_DATE":null,"MEAN_ELEMENT_THEORY":"SGP4","EPHEMERIS_TYPE":"0","MEAN_ANOMALY":"317.4724","PERIOD":"95.439","ECCENTRICITY":"0.00025520","MEAN_MOTION_DDOT":"0.0000000000000","MEAN_MOTION":"15.08818550","GP_ID":"221118900"},{"COUNTRY_CODE":"US","APOAPSIS":"542.246","PERIAPSIS":"537.228","BSTAR":"0.00004371900000","TLE_LINE1":"1 51106U 22005C   22355.25520675  .00000407  00000-0  43719-4 0  9990","REV_AT_EPOCH":"5157","OBJECT_TYPE":"PAYLOAD","LAUNCH_DATE":"2022-01-19","INCLINATION":"53.2154","SEMIMAJOR_AXIS":"6917.872","OBJECT_ID":"2022-005C","SITE":"AFETR","OBJECT_NAME":"STARLINK-3176","TLE_LINE2":"2 51106  53.2154 161.3507 0003627  53.9928 306.1400 15.08842638 51579","FILE":"3716551","CENTER_NAME":"EARTH","MEAN_ELEMENT_THEORY":"SGP4","EPHEMERIS_TYPE":"0","MEAN_ANOMALY":"306.1400","PERIOD":"95.437","ECCENTRICITY":"0.00036270","MEAN_MOTION_DDOT":"0.0000000000000","MEAN_MOTION":"15.08842638","GP_ID":"221119121","NORAD_CAT_ID":"51106","EPOCH":"2022-12-21T06:07:29.863200","RCS_SIZE":"LARGE","CLASSIFICATION_TYPE":"U","TIME_SYSTEM":"UTC","ARG_OF_PERICENTER":"53.9928","RA_OF_ASC_NODE":"161.3507","MEAN_MOTION_DOT":"0.00000407","ELEMENT_SET_NO":"999","DECAY_DATE":null,"REF_FRAME":"TEME"},{"APOAPSIS":"541.900","COUNTRY_CODE":"US","TLE_LINE1":"1 51107U 22005D   22355.52021404  .00000343  00000-0  39684-4 0  9992","BSTAR":"0.00003968400000","PERIAPSIS":"537.597","LAUNCH_DATE":"2022-01-19","OBJECT_TYPE":"PAYLOAD","REV_AT_EPOCH":"5148","SEMIMAJOR_AXIS":"6917.883","INCLINATION":"53.2145","OBJECT_NAME":"STARLINK-3368","SITE":"AFETR","OBJECT_ID":"2022-005D","TLE_LINE2":"2 51107  53.2145 170.1789 0003110  41.7968 318.3262 15.08838994 51487","CENTER_NAME":"EARTH","FILE":"3716551","EPHEMERIS_TYPE":"0","MEAN_ELEMENT_THEORY":"SGP4","PERIOD":"95.438","MEAN_ANOMALY":"318.3262","GP_ID":"221118399","MEAN_MOTION":"15.08838994","MEAN_MOTION_DDOT":"0.0000000000000","ECCENTRICITY":"0.00031100","EPOCH":"2022-12-21T12:29:06.493056","NORAD_CAT_ID":"51107","CLASSIFICATION_TYPE":"U","RCS_SIZE":"LARGE","MEAN_MOTION_DOT":"0.00000343","RA_OF_ASC_NODE":"170.1789","ARG_OF_PERICENTER":"41.7968","TIME_SYSTEM":"UTC","REF_FRAME":"TEME","DECAY_DATE":null,"ELEMENT_SET_NO":"999"},{"EPOCH":"2022-12-21T04:58:36.273792","NORAD_CAT_ID":"51108","CLASSIFICATION_TYPE":"U","RCS_SIZE":"LARGE","MEAN_MOTION_DOT":"0.00000166","ARG_OF_PERICENTER":"49.9605","RA_OF_ASC_NODE":"161.5813","TIME_SYSTEM":"UTC","DECAY_DATE":null,"REF_FRAME":"TEME","ELEMENT_SET_NO":"999","EPHEMERIS_TYPE":"0","MEAN_ELEMENT_THEORY":"SGP4","PERIOD":"95.437","MEAN_ANOMALY":"310.1660","GP_ID":"221063362","MEAN_MOTION":"15.08842822","MEAN_MOTION_DDOT":"0.0000000000000","ECCENTRICITY":"0.00031200","SEMIMAJOR_AXIS":"6917.872","INCLINATION":"53.2157","OBJECT_NAME":"STARLINK-3362","SITE":"AFETR","OBJECT_ID":"2022-005E","TLE_LINE2":"2 51108  53.2157 161.5813 0003120  49.9605 310.1660 15.08842822 52671","CENTER_NAME":"EARTH","FILE":"3715058","APOAPSIS":"541.895","COUNTRY_CODE":"US","TLE_LINE1":"1 51108U 22005E   22355.20736428  .00000166  00000-0  28595-4 0  9999","BSTAR":"0.00002859500000","PERIAPSIS":"537.578","OBJECT_TYPE":"PAYLOAD","LAUNCH_DATE":"2022-01-19","REV_AT_EPOCH":"5267"},{"TIME_SYSTEM":"UTC","RA_OF_ASC_NODE":"160.2720","ARG_OF_PERICENTER":"49.6949","MEAN_MOTION_DOT":"-0.00001092","ELEMENT_SET_NO":"999","REF_FRAME":"TEME","DECAY_DATE":null,"NORAD_CAT_ID":"51109","EPOCH":"2022-12-21T11:53:19.152384","RCS_SIZE":"LARGE","CLASSIFICATION_TYPE":"U","ECCENTRICITY":"0.00030830","MEAN_MOTION_DDOT":"0.0000000000000","GP_ID":"221083359","MEAN_MOTION":"15.08838838","MEAN_ELEMENT_THEORY":"SGP4","EPHEMERIS_TYPE":"0","MEAN_ANOMALY":"310.4312","PERIOD":"95.438","TLE_LINE2":"2 51109  53.2154 160.2720 0003083  49.6949 310.4312 15.08838838 52723","FILE":"3715967","CENTER_NAME":"EARTH","INCLINATION":"53.2154","SEMIMAJOR_AXIS":"6917.884","OBJECT_ID":"2022-005F","SITE":"AFETR","OBJECT_NAME":"STARLINK-3358","PERIAPSIS":"537.616","BSTAR":"-0.00005044900000","TLE_LINE1":"1 51109U 22005F   22355.49536056 -.00001092  00000-0 -50449-4 0  9990","REV_AT_EPOCH":"5272","LAUNCH_DATE":"2022-01-19","OBJECT_TYPE":"PAYLOAD","COUNTRY_CODE":"US","APOAPSIS":"541.882"},{"COUNTRY_CODE":"US","APOAPSIS":"541.758","REV_AT_EPOCH":"5158","OBJECT_TYPE":"PAYLOAD","LAUNCH_DATE":"2022-01-19","PERIAPSIS":"537.714","BSTAR":"0.00006860900000","TLE_LINE1":"1 51110U 22005G   22355.26624314  .00000804  00000-0  68609-4 0  9997","OBJECT_ID":"2022-005G","SITE":"AFETR","OBJECT_NAME":"STARLINK-3344","INCLINATION":"53.2157","SEMIMAJOR_AXIS":"6917.871","FILE":"3716551","CENTER_NAME":"EARTH","TLE_LINE2":"2 51110  53.2157 161.3230 0002923  38.2427 321.8772 15.08842990 51586","MEAN_ANOMALY":"321.8772","PERIOD":"95.437","MEAN_ELEMENT_THEORY":"SGP4","EPHEMERIS_TYPE":"0","ECCENTRICITY":"0.00029230","MEAN_MOTION_DDOT":"0.0000000000000","GP_ID":"221119621","MEAN_MOTION":"15.08842990","RCS_SIZE":"LARGE","CLASSIFICATION_TYPE":"U","NORAD_CAT_ID":"51110","EPOCH":"2022-12-21T06:23:23.407296","ELEMENT_SET_NO":"999","DECAY_DATE":null,"REF_FRAME":"TEME","TIME_SYSTEM":"UTC","ARG_OF_PERICENTER":"38.2427","RA_OF_ASC_NODE":"161.3230","MEAN_MOTION_DOT":"0.00000804"}];
